ATLAS CENTAUR 2         
1 00694U 63047A   26195.41989026  .00000611  00000+0  62847-4 0  9999
2 00694  30.3510 207.0932 0545686 117.6838 248.0210 14.12564194149552
THOR AGENA D R/B        
1 00733U 64002A   26195.57686460  .00000070  00000+0  42376-4 0  9992
2 00733  99.1155 215.7861 0031815 248.4146 111.3645 14.34075868256484
SL-3 R/B                
1 00877U 64053B   26195.63392499  .00000031  00000+0  30373-4 0  9991
2 00877  65.0780 319.0347 0080287 252.4902 106.7413 14.61439368285345
SL-8 R/B                
1 02802U 67045B   26195.48880910  .00000120  00000+0  40689-4 0  9998
2 02802  74.0111 111.2685 0063015  88.1174 272.7200 14.45695156107347
SL-8 R/B                
1 03230U 68040B   26195.59048980  .00001148  00000+0  85839-4 0  9992
2 03230  74.0290  54.2413 0025132 202.4788 157.5302 15.03938210109088
OAO 2                   
1 03597U 68110A   26195.51066358  .00000091  00000+0  29671-4 0  9995
2 03597  34.9933 277.1167 0004998 138.8197 221.2872 14.47361665 37484
ISIS 1                  
1 03669U 69009A   26195.36602756  .00000033  00000+0  16509-4 0  9996
2 03669  88.4451 141.4152 1707131 193.3290 161.6611 11.30436476362841
SERT 2                  
1 04327U 70009A   26195.59661939 -.00000022  00000+0  27127-4 0  9990
2 04327  99.2840 131.8390 0004521 190.5590 342.2953 13.58740924797123
SL-3 R/B                
1 05118U 71028B   26195.57010074  .00035164  00000+0  26239-3 0  9993
2 05118  81.2309 254.0078 0014618 184.0490 176.0654 15.72411496  8548
ASTEX 1                 
1 05560U 71089A   26195.52201749  .00000209  00000+0  53170-4 0  9994
2 05560  92.7006 192.6593 0016429  24.5673 335.6312 14.50871159880691
SL-8 R/B                
1 05730U 71119B   26195.60552269  .00004046  00000+0  20826-3 0  9996
2 05730  73.8887 298.0585 0542779 238.5071 116.1972 14.39729300673747
OAO 3 (COPERNICUS)      
1 06153U 72065A   26195.58147061  .00000135  00000+0  32036-4 0  9996
2 06153  35.0060 294.3145 0006004 120.9921 256.0624 14.60074680864754
ATLAS CENTAUR R/B       
1 06155U 72065B   26195.29961598  .00000372  00000+0  53774-4 0  9990
2 06155  35.0016 283.5913 0033639 355.1746   4.8627 14.77965052860007
SL-8 R/B                
1 08459U 75112B   26195.30708291  .00000120  00000+0  48058-4 0  9996
2 08459  74.0605 145.9821 0016237 208.9875 151.0379 14.38257913650075
SL-3 R/B                
1 10114U 77057B   26195.55777343  .00006459  00000+0  12366-3 0  9991
2 10114  97.5846  13.4362 0007133 172.4017 187.7343 15.48403640687945
SEASAT 1                
1 10967U 78064A   26195.49168775  .00000026  00000+0  45877-4 0  9990
2 10967 108.0181  31.6081 0001106 254.8123 105.2901 14.46259946524847
SL-14 R/B               
1 11267U 79011B   26195.47083218  .00000238  00000+0  20864-4 0  9997
2 11267  82.5253 336.2601 0015847 359.6431   0.4774 14.92037679547681
SL-8 R/B                
1 11574U 79089B   26195.53141701  .00000057  00000+0  25198-4 0  9996
2 11574  74.0670 216.2378 0015980 351.2696   8.8180 14.42414292454391
SL-14 R/B               
1 11672U 80005B   26195.43327419  .00000282  00000+0  25779-4 0  9991
2 11672  82.5136 186.9941 0017326  99.8572 260.4604 14.91049652495372
SL-8 R/B                
1 12139U 81003B   26195.37148616  .00011489  00000+0  27230-3 0  9996
2 12139  82.9360 172.5007 0250141  96.4658 266.5120 15.15045752333836
SL-3 R/B                
1 12465U 81046B   26195.59425350  .00007204  00000+0  15266-3 0  9998
2 12465  81.2316 137.0401 0015810 299.5217  60.4451 15.44771369458001
SL-3 R/B                
1 12904U 81103B   26195.59343239  .00002372  00000+0  10117-3 0  9996
2 12904  81.1571  64.4298 0012016 213.9772 146.0692 15.22485705992530
SL-3 R/B                
1 13068U 82013B   26195.55639538  .00002240  00000+0  93597-4 0  9993
2 13068  81.1732  11.9248 0022899 110.5145 249.8549 15.22959175423651
SL-3 R/B                
1 13154U 82039B   26195.58990942  .00001719  00000+0  10152-3 0  9994
2 13154  81.1509  69.4303 0028229 260.4891  99.3144 15.10696122400791
SL-3 R/B                
1 13403U 82079B   26195.59245933  .00003126  00000+0  11943-3 0  9992
2 13403  81.1444  43.0636 0024950  95.5601 264.8479 15.26010169397047
SL-14 R/B               
1 13553U 82092B   26195.57836326  .00000213  00000+0  21059-4 0  9997
2 13553  82.5668  22.6678 0018963 237.8811 180.9778 14.86764595347786
SL-3 R/B                
1 13819U 83010B   26195.50313135  .00008381  00000+0  14902-3 0  9996
2 13819  81.0992 206.3040 0013365 326.3082  33.7314 15.49898482377567
SL-3 R/B                
1 14208U 83075B   26195.60619361  .00005899  00000+0  14423-3 0  9990
2 14208  97.6101 205.2403 0022122 131.6679 228.6465 15.40972540349689
COSMOS 1536             
1 14699U 84013A   26195.52065155  .00003334  00000+0  13065-3 0  9997
2 14699  82.5454 341.6128 0013866 190.6482 169.4465 15.25339162291945
SL-14 R/B               
1 14820U 84027B   26195.55222124  .00000212  00000+0  21370-4 0  9993
2 14820  82.5430 126.0568 0016317 273.8942  86.0409 14.86078837266474
