OBJECT_NAME,OBJECT_ID,EPOCH,MEAN_MOTION,ECCENTRICITY,INCLINATION,RA_OF_ASC_NODE,ARG_OF_PERICENTER,MEAN_ANOMALY,EPHEMERIS_TYPE,CLASSIFICATION_TYPE,NORAD_CAT_ID,ELEMENT_SET_NO,REV_AT_EPOCH,BSTAR,MEAN_MOTION_DOT,MEAN_MOTION_DDOT
ATLAS CENTAUR 2,1963-047A,2026-07-14T10:04:38.518464,14.12564194,.05456864,30.3510,207.0932,117.6838,248.0210,0,U,694,999,14955,.62847455E-4,.611E-5,0
THOR AGENA D R/B,1964-002A,2026-07-14T13:50:41.101440,14.34075868,.00318152,99.1155,215.7861,248.4146,111.3645,0,U,733,999,25648,.42376161E-4,.7E-6,0
SL-3 R/B,1964-053B,2026-07-14T15:12:51.119136,14.61439368,.00802876,65.0780,319.0347,252.4902,106.7413,0,U,877,999,28534,.30372888E-4,.31E-6,0
SL-8 R/B,1967-045B,2026-07-14T11:43:53.106240,14.45695156,.00630151,74.0111,111.2685,88.1174,272.7200,0,U,2802,999,10734,.4068907E-4,.12E-5,0
SL-8 R/B,1968-040B,2026-07-14T14:10:18.318720,15.03938210,.00251322,74.0290,54.2413,202.4788,157.5302,0,U,3230,999,10908,.85838618E-4,.1148E-4,0
OAO 2,1968-110A,2026-07-14T12:15:21.333312,14.47361665,.0004998,34.9933,277.1167,138.8197,221.2872,0,U,3597,999,3748,.29671089E-4,.91E-6,0
ISIS 1,1969-009A,2026-07-14T08:47:04.781184,11.30436476,.17071317,88.4451,141.4152,193.3290,161.6611,0,U,3669,999,36284,.16508863E-4,.33E-6,0
SERT 2,1970-009A,2026-07-14T14:19:07.915296,13.58740924,.00045214,99.2840,131.8390,190.5590,342.2953,0,U,4327,999,79712,.27126524E-4,-.22E-6,0
SL-3 R/B,1971-028B,2026-07-14T13:40:56.703936,15.72411496,.00146181,81.2309,254.0078,184.0490,176.0654,0,U,5118,999,854,.26239232E-3,.35164E-3,0
ASTEX 1,1971-089A,2026-07-14T12:31:42.311136,14.50871159,.00164294,92.7006,192.6593,24.5673,335.6312,0,U,5560,999,88069,.53170385E-4,.209E-5,0
SL-8 R/B,1971-119B,2026-07-14T14:31:57.160416,14.39729300,.05427797,73.8887,298.0585,238.5071,116.1972,0,U,5730,999,67374,.2082575E-3,.4046E-4,0
OAO 3 (COPERNICUS),1972-065A,2026-07-14T13:57:19.060704,14.60074680,.00060041,35.0060,294.3145,120.9921,256.0624,0,U,6153,999,86475,.32035679E-4,.135E-5,0
ATLAS CENTAUR R/B,1972-065B,2026-07-14T07:11:26.820672,14.77965052,.00336395,35.0016,283.5913,355.1746,4.8627,0,U,6155,999,86000,.53773801E-4,.372E-5,0
SL-8 R/B,1975-112B,2026-07-14T07:22:11.963424,14.38257913,.00162379,74.0605,145.9821,208.9875,151.0379,0,U,8459,999,65007,.48058102E-4,.12E-5,0
SL-3 R/B,1977-057B,2026-07-14T13:23:11.624352,15.48403640,.00071337,97.5846,13.4362,172.4017,187.7343,0,U,10114,999,68794,.12365813E-3,.6459E-4,0
SEASAT 1,1978-064A,2026-07-14T11:48:01.821600,14.46259946,.00011065,108.0181,31.6081,254.8123,105.2901,0,U,10967,999,52484,.45876634E-4,.26E-6,0
SL-14 R/B,1979-011B,2026-07-14T11:17:59.900352,14.92037679,.00158479,82.5253,336.2601,359.6431,0.4774,0,U,11267,999,54768,.20864386E-4,.238E-5,0
SL-8 R/B,1979-089B,2026-07-14T12:45:14.429664,14.42414292,.00159807,74.0670,216.2378,351.2696,8.8180,0,U,11574,999,45439,.25197992E-4,.57E-6,0
SL-14 R/B,1980-005B,2026-07-14T10:23:54.890016,14.91049652,.0017326,82.5136,186.9941,99.8572,260.4604,0,U,11672,999,49537,.25778988E-4,.282E-5,0
SL-8 R/B,1981-003B,2026-07-14T08:54:56.404224,15.15045752,.02501413,82.9360,172.5007,96.4658,266.5120,0,U,12139,999,33383,.27229919E-3,.11489E-3,0
SL-3 R/B,1981-046B,2026-07-14T14:15:43.502400,15.44771369,.00158107,81.2316,137.0401,299.5217,60.4451,0,U,12465,999,45800,.1526571E-3,.7204E-4,0
SL-3 R/B,1981-103B,2026-07-14T14:14:32.558496,15.22485705,.00120162,81.1571,64.4298,213.9772,146.0692,0,U,12904,999,99253,.10117333E-3,.2372E-4,0
SL-3 R/B,1982-013B,2026-07-14T13:21:12.560832,15.22959175,.00228999,81.1732,11.9248,110.5145,249.8549,0,U,13068,999,42365,.93597431E-4,.224E-4,0
SL-3 R/B,1982-039B,2026-07-14T14:09:28.173888,15.10696122,.00282291,81.1509,69.4303,260.4891,99.3144,0,U,13154,999,40079,.10151893E-3,.1719E-4,0
SL-3 R/B,1982-079B,2026-07-14T14:13:08.486112,15.26010169,.00249509,81.1444,43.0636,95.5601,264.8479,0,U,13403,999,39704,.11943375E-3,.3126E-4,0
SL-14 R/B,1982-092B,2026-07-14T13:52:50.585664,14.86764595,.0018963,82.5668,22.6678,237.8811,180.9778,0,U,13553,999,34778,.21058551E-4,.213E-5,0
SL-3 R/B,1983-010B,2026-07-14T12:04:30.548640,15.49898482,.00133657,81.0992,206.3040,326.3082,33.7314,0,U,13819,999,37756,.14901753E-3,.8381E-4,0
SL-3 R/B,1983-075B,2026-07-14T14:32:55.127904,15.40972540,.00221229,97.6101,205.2403,131.6679,228.6465,0,U,14208,999,34968,.14423062E-3,.5899E-4,0
COSMOS 1536,1984-013A,2026-07-14T12:29:44.293920,15.25339162,.00138662,82.5454,341.6128,190.6482,169.4465,0,U,14699,999,29194,.13065094E-3,.3334E-4,0
SL-14 R/B,1984-027B,2026-07-14T13:15:11.915136,14.86078837,.00163171,82.5430,126.0568,273.8942,86.0409,0,U,14820,999,26647,.21370306E-4,.212E-5,0
